CCSDS_OMM_VERS = 2.0
CREATION_DATE  = 
ORIGINATOR     = 

OBJECT_NAME    = ATLAS CENTAUR 2
OBJECT_ID      = 1963-047A
CENTER_NAME    = EARTH
REF_FRAME      = TEME
TIME_SYSTEM    = UTC
MEAN_ELEMENT_THEORY = SGP/SGP4

EPOCH          = 2025-11-08T17:01:08.859648
MEAN_MOTION    = 14.11424142
ECCENTRICITY   = .0550115
INCLINATION    = 30.3502
RA_OF_ASC_NODE = 151.4968
ARG_OF_PERICENTER = 94.4783
MEAN_ANOMALY   = 271.8838

EPHEMERIS_TYPE = 0
CLASSIFICATION_TYPE = U
NORAD_CAT_ID   = 694
ELEMENT_SET_NO = 999
REV_AT_EPOCH   = 11451
BSTAR          = .67714E-3
MEAN_MOTION_DOT = .5568E-4
MEAN_MOTION_DDOT = 0

CCSDS_OMM_VERS = 2.0
CREATION_DATE  = 
ORIGINATOR     = 

OBJECT_NAME    = THOR AGENA D R/B
OBJECT_ID      = 1964-002A
CENTER_NAME    = EARTH
REF_FRAME      = TEME
TIME_SYSTEM    = UTC
MEAN_ELEMENT_THEORY = SGP/SGP4

EPOCH          = 2025-11-08T17:46:51.160224
MEAN_MOTION    = 14.33929569
ECCENTRICITY   = .0031965
INCLINATION    = 99.1221
RA_OF_ASC_NODE = 314.5198
ARG_OF_PERICENTER = 250.1198
MEAN_ANOMALY   = 109.6539

EPHEMERIS_TYPE = 0
CLASSIFICATION_TYPE = U
NORAD_CAT_ID   = 733
ELEMENT_SET_NO = 999
REV_AT_EPOCH   = 22096
BSTAR          = .14976E-3
MEAN_MOTION_DOT = .371E-5
MEAN_MOTION_DDOT = 0

CCSDS_OMM_VERS = 2.0
CREATION_DATE  = 
ORIGINATOR     = 

OBJECT_NAME    = SL-3 R/B
OBJECT_ID      = 1964-053B
CENTER_NAME    = EARTH
REF_FRAME      = TEME
TIME_SYSTEM    = UTC
MEAN_ELEMENT_THEORY = SGP/SGP4

EPOCH          = 2025-11-08T10:06:13.054752
MEAN_MOTION    = 14.61218538
ECCENTRICITY   = .0070649
INCLINATION    = 65.0773
RA_OF_ASC_NODE = 326.7275
ARG_OF_PERICENTER = 331.9935
MEAN_ANOMALY   = 27.7370

EPHEMERIS_TYPE = 0
CLASSIFICATION_TYPE = U
NORAD_CAT_ID   = 877
ELEMENT_SET_NO = 999
REV_AT_EPOCH   = 24907
BSTAR          = .13146E-3
MEAN_MOTION_DOT = .548E-5
MEAN_MOTION_DDOT = 0

CCSDS_OMM_VERS = 2.0
CREATION_DATE  = 
ORIGINATOR     = 

OBJECT_NAME    = SL-8 R/B
OBJECT_ID      = 1967-045B
CENTER_NAME    = EARTH
REF_FRAME      = TEME
TIME_SYSTEM    = UTC
MEAN_ELEMENT_THEORY = SGP/SGP4

EPOCH          = 2025-11-08T17:49:17.357664
MEAN_MOTION    = 14.45497081
ECCENTRICITY   = .0065568
INCLINATION    = 74.0112
RA_OF_ASC_NODE = 213.9410
ARG_OF_PERICENTER = 250.7334
MEAN_ANOMALY   = 108.6723

EPHEMERIS_TYPE = 0
CLASSIFICATION_TYPE = U
NORAD_CAT_ID   = 2802
ELEMENT_SET_NO = 999
REV_AT_EPOCH   = 7154
BSTAR          = .1631E-3
MEAN_MOTION_DOT = .561E-5
MEAN_MOTION_DDOT = 0

CCSDS_OMM_VERS = 2.0
CREATION_DATE  = 
ORIGINATOR     = 

OBJECT_NAME    = SL-8 R/B
OBJECT_ID      = 1968-040B
CENTER_NAME    = EARTH
REF_FRAME      = TEME
TIME_SYSTEM    = UTC
MEAN_ELEMENT_THEORY = SGP/SGP4

EPOCH          = 2025-11-08T19:30:03.436128
MEAN_MOTION    = 15.02190702
ECCENTRICITY   = .0023596
INCLINATION    = 74.0311
RA_OF_ASC_NODE = 200.4841
ARG_OF_PERICENTER = 52.0443
MEAN_ANOMALY   = 308.2871

EPHEMERIS_TYPE = 0
CLASSIFICATION_TYPE = U
NORAD_CAT_ID   = 3230
ELEMENT_SET_NO = 999
REV_AT_EPOCH   = 7185
BSTAR          = .42641E-3
MEAN_MOTION_DOT = .5613E-4
MEAN_MOTION_DDOT = 0

CCSDS_OMM_VERS = 2.0
CREATION_DATE  = 
ORIGINATOR     = 

OBJECT_NAME    = OAO 2
OBJECT_ID      = 1968-110A
CENTER_NAME    = EARTH
REF_FRAME      = TEME
TIME_SYSTEM    = UTC
MEAN_ELEMENT_THEORY = SGP/SGP4

EPOCH          = 2025-11-08T18:36:11.214720
MEAN_MOTION    = 14.47211557
ECCENTRICITY   = .0006095
INCLINATION    = 34.9930
RA_OF_ASC_NODE = 220.2706
ARG_OF_PERICENTER = 302.9642
MEAN_ANOMALY   = 57.0462

EPHEMERIS_TYPE = 0
CLASSIFICATION_TYPE = U
NORAD_CAT_ID   = 3597
ELEMENT_SET_NO = 999
REV_AT_EPOCH   = 157
BSTAR          = .12411E-3
MEAN_MOTION_DOT = .441E-5
MEAN_MOTION_DDOT = 0

CCSDS_OMM_VERS = 2.0
CREATION_DATE  = 
ORIGINATOR     = 

OBJECT_NAME    = ISIS 1
OBJECT_ID      = 1969-009A
CENTER_NAME    = EARTH
REF_FRAME      = TEME
TIME_SYSTEM    = UTC
MEAN_ELEMENT_THEORY = SGP/SGP4

EPOCH          = 2025-11-08T13:01:41.096064
MEAN_MOTION    = 11.30334882
ECCENTRICITY   = .1707643
INCLINATION    = 88.4525
RA_OF_ASC_NODE = 168.5348
ARG_OF_PERICENTER = 333.7996
MEAN_ANOMALY   = 18.5530

EPHEMERIS_TYPE = 0
CLASSIFICATION_TYPE = U
NORAD_CAT_ID   = 3669
ELEMENT_SET_NO = 999
REV_AT_EPOCH   = 33484
BSTAR          = .18045E-3
MEAN_MOTION_DOT = .254E-5
MEAN_MOTION_DDOT = 0

CCSDS_OMM_VERS = 2.0
CREATION_DATE  = 
ORIGINATOR     = 

OBJECT_NAME    = SERT 2
OBJECT_ID      = 1970-009A
CENTER_NAME    = EARTH
REF_FRAME      = TEME
TIME_SYSTEM    = UTC
MEAN_ELEMENT_THEORY = SGP/SGP4

EPOCH          = 2025-11-08T18:43:07.832928
MEAN_MOTION    = 13.58711078
ECCENTRICITY   = .0005584
INCLINATION    = 99.2591
RA_OF_ASC_NODE = 257.5843
ARG_OF_PERICENTER = 109.1524
MEAN_ANOMALY   = 280.1194

EPHEMERIS_TYPE = 0
CLASSIFICATION_TYPE = U
NORAD_CAT_ID   = 4327
ELEMENT_SET_NO = 999
REV_AT_EPOCH   = 76347
BSTAR          = .8111E-4
MEAN_MOTION_DOT = .18E-6
MEAN_MOTION_DDOT = 0

CCSDS_OMM_VERS = 2.0
CREATION_DATE  = 
ORIGINATOR     = 

OBJECT_NAME    = SL-3 R/B
OBJECT_ID      = 1971-028B
CENTER_NAME    = EARTH
REF_FRAME      = TEME
TIME_SYSTEM    = UTC
MEAN_ELEMENT_THEORY = SGP/SGP4

EPOCH          = 2025-11-08T18:57:01.461600
MEAN_MOTION    = 15.52047459
ECCENTRICITY   = .0022148
INCLINATION    = 81.2402
RA_OF_ASC_NODE = 200.2675
ARG_OF_PERICENTER = 4.5680
MEAN_ANOMALY   = 355.5765

EPHEMERIS_TYPE = 0
CLASSIFICATION_TYPE = U
NORAD_CAT_ID   = 5118
ELEMENT_SET_NO = 999
REV_AT_EPOCH   = 96986
BSTAR          = .63435E-3
MEAN_MOTION_DOT = .38771E-3
MEAN_MOTION_DDOT = 0

CCSDS_OMM_VERS = 2.0
CREATION_DATE  = 
ORIGINATOR     = 

OBJECT_NAME    = ASTEX 1
OBJECT_ID      = 1971-089A
CENTER_NAME    = EARTH
REF_FRAME      = TEME
TIME_SYSTEM    = UTC
MEAN_ELEMENT_THEORY = SGP/SGP4

EPOCH          = 2025-11-08T16:44:07.403424
MEAN_MOTION    = 14.50575915
ECCENTRICITY   = .0017352
INCLINATION    = 92.7120
RA_OF_ASC_NODE = 112.6105
ARG_OF_PERICENTER = 128.3470
MEAN_ANOMALY   = 231.9298

EPHEMERIS_TYPE = 0
CLASSIFICATION_TYPE = U
NORAD_CAT_ID   = 5560
ELEMENT_SET_NO = 999
REV_AT_EPOCH   = 84476
BSTAR          = .23933E-3
MEAN_MOTION_DOT = .938E-5
MEAN_MOTION_DDOT = 0

CCSDS_OMM_VERS = 2.0
CREATION_DATE  = 
ORIGINATOR     = 

OBJECT_NAME    = SL-8 R/B
OBJECT_ID      = 1971-119B
CENTER_NAME    = EARTH
REF_FRAME      = TEME
TIME_SYSTEM    = UTC
MEAN_ELEMENT_THEORY = SGP/SGP4

EPOCH          = 2025-11-08T16:10:33.331296
MEAN_MOTION    = 14.34894421
ECCENTRICITY   = .0561224
INCLINATION    = 73.8894
RA_OF_ASC_NODE = 41.4233
ARG_OF_PERICENTER = 32.6350
MEAN_ANOMALY   = 330.8203

EPHEMERIS_TYPE = 0
CLASSIFICATION_TYPE = U
NORAD_CAT_ID   = 5730
ELEMENT_SET_NO = 999
REV_AT_EPOCH   = 63811
BSTAR          = .54554E-3
MEAN_MOTION_DOT = .10279E-3
MEAN_MOTION_DDOT = 0

CCSDS_OMM_VERS = 2.0
CREATION_DATE  = 
ORIGINATOR     = 

OBJECT_NAME    = OAO 3 (COPERNICUS)
OBJECT_ID      = 1972-065A
CENTER_NAME    = EARTH
REF_FRAME      = TEME
TIME_SYSTEM    = UTC
MEAN_ELEMENT_THEORY = SGP/SGP4

EPOCH          = 2025-11-08T04:46:40.519776
MEAN_MOTION    = 14.59859410
ECCENTRICITY   = .00072903
INCLINATION    = 35.0057
RA_OF_ASC_NODE = 269.4245
ARG_OF_PERICENTER = 248.1285
MEAN_ANOMALY   = 128.9587

EPHEMERIS_TYPE = 0
CLASSIFICATION_TYPE = U
NORAD_CAT_ID   = 6153
ELEMENT_SET_NO = 999
REV_AT_EPOCH   = 82843
BSTAR          = .13813076E-3
MEAN_MOTION_DOT = .65E-5
MEAN_MOTION_DDOT = 0

