ATLAS CENTAUR 2         
1 00694U 63047A   25312.70913032  .00005568  00000+0  67714-3 0  9998
2 00694  30.3502 151.4968 0550115  94.4783 271.8838 14.11424142114513
THOR AGENA D R/B        
1 00733U 64002A   25312.74086991  .00000371  00000+0  14976-3 0  9992
2 00733  99.1221 314.5198 0031965 250.1198 109.6539 14.33929569220963
SL-3 R/B                
1 00877U 64053B   25312.42098443  .00000548  00000+0  13146-3 0  9991
2 00877  65.0773 326.7275 0070649 331.9935  27.7370 14.61218538249070
SL-8 R/B                
1 02802U 67045B   25312.74256201  .00000561  00000+0  16310-3 0  9999
2 02802  74.0112 213.9410 0065568 250.7334 108.6723 14.45497081 71540
SL-8 R/B                
1 03230U 68040B   25312.81253977  .00005613  00000+0  42641-3 0  9995
2 03230  74.0311 200.4841 0023596  52.0443 308.2871 15.02190702 71855
OAO 2                   
1 03597U 68110A   25312.77512980  .00000441  00000+0  12411-3 0  9992
2 03597  34.9930 220.2706 0006095 302.9642  57.0462 14.47211557  1573
ISIS 1                  
1 03669U 69009A   25312.54283676  .00000254  00000+0  18045-3 0  9993
2 03669  88.4525 168.5348 1707643 333.7996  18.5530 11.30334882334848
SERT 2                  
1 04327U 70009A   25312.77995177  .00000018  00000+0  81110-4 0  9990
2 04327  99.2591 257.5843 0005584 109.1524 280.1194 13.58711078763474
SL-3 R/B                
1 05118U 71028B   25312.78960025  .00038771  00000+0  63435-3 0  9992
2 05118  81.2402 200.2675 0022148   4.5680 355.5765 15.52047459969862
ASTEX 1                 
1 05560U 71089A   25312.69730791  .00000938  00000+0  23933-3 0  9998
2 05560  92.7120 112.6105 0017352 128.3470 231.9298 14.50575915844763
SL-8 R/B                
1 05730U 71119B   25312.67399689  .00010279  00000+0  54554-3 0  9998
2 05730  73.8894  41.4233 0561224  32.6350 330.8203 14.34894421638110
OAO 3 (COPERNICUS)      
1 06153U 72065A   25312.19908009  .00000650  00000+0  13813-3 0  9993
2 06153  35.0057 269.4245 0007290 248.1285 128.9587 14.59859410828438
